OBJECT_NAME,OBJECT_ID,EPOCH,MEAN_MOTION,ECCENTRICITY,INCLINATION,RA_OF_ASC_NODE,ARG_OF_PERICENTER,MEAN_ANOMALY,EPHEMERIS_TYPE,CLASSIFICATION_TYPE,NORAD_CAT_ID,ELEMENT_SET_NO,REV_AT_EPOCH,BSTAR,MEAN_MOTION_DOT,MEAN_MOTION_DDOT
STARLINK-31772,2024-065K,2026-02-07T10:57:57.093120,15.30198786,.00018209,53.1605,61.8875,92.7646,267.3564,0,U,59430,999,10430,.10920365E-3,.2876E-4,0
STARLINK-31613,2024-065L,2026-02-07T11:16:10.949952,15.30218164,.00008567,53.1604,61.9651,343.1434,16.9538,0,U,59431,999,10430,.57408595E-4,.1343E-4,0
STARLINK-31780,2024-065M,2026-02-07T11:26:49.801920,15.30204143,.00013362,53.1593,62.0106,85.8066,274.3088,0,U,59432,999,10430,.77598363E-4,.194E-4,0
STARLINK-31740,2024-065N,2026-02-07T09:17:03.739776,15.30222895,.00015962,53.1604,64.2977,97.8772,262.2410,0,U,59433,999,10426,-.10871554E-3,-.358E-4,0
STARLINK-31580,2024-065P,2026-02-07T11:03:15.906528,15.30199848,.00015599,53.1599,64.0459,70.3868,289.7301,0,U,59434,999,10427,.63649564E-4,.1526E-4,0
STARLINK-31696,2024-065Q,2026-02-07T11:11:37.938048,15.30202968,.0000539,53.1609,61.9458,55.0001,305.1050,0,U,59435,999,10430,.10303807E-3,.2694E-4,0
STARLINK-31700,2024-065R,2026-02-07T11:02:29.737824,15.30189279,.00015814,53.1575,61.9054,116.9156,243.2006,0,U,59436,999,10430,-.16160079E-3,-.5141E-4,0
STARLINK-31706,2024-065S,2026-02-07T10:52:38.508672,15.30200166,.00005296,53.1603,64.0042,75.0440,285.0620,0,U,59437,999,10427,.48874593E-4,.1089E-4,0
STARLINK-31711,2024-065T,2026-02-07T07:58:59.054016,15.30202237,.00049972,53.1604,62.5333,104.9652,255.1902,0,U,59438,999,10428,.32946209E-3,.9412E-4,0
STARLINK-31708,2024-065U,2026-02-07T07:45:18.086400,15.30188949,.0001796,53.1600,62.4731,92.7932,267.3274,0,U,59439,999,10428,-.47983E-5,-.502E-5,0
STARLINK-31693,2024-065W,2026-02-07T11:29:52.245024,15.30181564,.00012044,53.1606,62.0211,96.7325,263.3812,0,U,59441,999,10430,-.9331996E-5,-.635E-5,0
TSAT-1A,2024-066A,2026-02-07T14:00:36.014688,15.32278743,.0007908,45.6169,107.3121,97.2651,262.9143,0,U,59442,999,10187,.55297E-3,.17298E-3,0
HAWK-8A,2024-066B,2026-02-06T17:51:44.930592,14.98629712,.00023571,45.5925,230.7887,84.1969,275.9181,0,U,59443,999,10026,.21680925E-3,.2411E-4,0
CAPELLA-14 (ACADIA-4),2024-066C,2026-02-07T11:06:23.784192,15.09254233,.00047252,45.6031,218.8764,288.4076,71.6296,0,U,59444,999,9285,.15444744E-2,.24812E-3,0
HAWK-8B,2024-066D,2026-02-07T01:52:16.632192,14.98631492,.00023919,45.6180,230.6765,93.3336,266.7819,0,U,59445,999,10030,.21808027E-3,.2426E-4,0
HAWK-9A,2024-066E,2026-02-07T12:01:50.508192,14.98624119,.00018904,45.6073,227.3095,71.8937,288.2150,0,U,59446,999,10037,.25477928E-3,.2873E-4,0
QPS-SAR-7 (TSUKUYOMI-II),2024-066F,2026-02-07T20:32:45.150432,15.06967119,.00017854,45.6033,203.1361,250.8404,109.2287,0,U,59447,999,10070,.75493303E-3,.11239E-3,0
HAWK-9C,2024-066G,2026-02-06T16:50:19.123008,14.98620097,.00019865,45.5951,230.6787,43.1238,316.9799,0,U,59448,999,10025,.24797412E-3,.279E-4,0
HAWK-8C,2024-066H,2026-02-05T22:39:43.586208,14.98625752,.000204,45.6055,235.7289,88.7959,271.3155,0,U,59449,999,10013,.22359E-3,.2493E-4,0
HAWK-9B,2024-066J,2026-02-07T12:02:16.234656,14.98624744,.00023014,45.6202,228.1052,46.0945,314.0126,0,U,59450,999,10037,.24851216E-3,.2797E-4,0
CENTAURI-6,2024-066K,2026-02-07T12:14:27.681504,15.04369332,.00013733,45.6044,211.1133,170.5357,189.5553,0,U,59451,999,10058,.45085814E-3,.615E-4,0
KORSAT-1,2024-066L,2026-02-07T22:32:36.492864,14.99458004,.00090007,45.4095,194.4317,44.1568,316.0028,0,U,59452,999,10066,.39372987E-3,.4674E-4,0
STARLINK-31622,2024-068B,2026-02-07T18:21:19.160640,15.27552600,.00011703,43.0022,203.7264,233.4350,126.6394,0,U,59456,999,10394,.22666432E-3,.5975E-4,0
STARLINK-31319,2024-068C,2026-02-07T16:00:01.999584,15.27574236,.00015638,42.9992,200.5111,273.5089,38.0237,0,U,59457,999,581,.62954187E-3,.17099E-3,0
STARLINK-31625,2024-068D,2026-02-07T11:49:54.049152,15.27528242,.00008762,43.0019,205.1270,275.7849,84.2903,0,U,59458,999,10390,.27777256E-3,.7377E-4,0
STARLINK-31631,2024-068E,2026-02-07T11:09:52.464384,15.27578331,.00010864,43.0001,201.4617,276.6804,83.3924,0,U,59459,999,10394,.11447692E-4,.53E-6,0
STARLINK-31620,2024-068F,2026-02-07T11:41:19.521600,15.27568941,.00015,43.0024,201.6257,252.6991,107.3697,0,U,59460,999,10394,-.1210089E-3,-.3589E-4,0
STARLINK-31511,2024-068H,2026-02-07T11:59:07.745280,15.27577799,.00009214,43.0003,205.1764,260.0312,100.0436,0,U,59462,999,10390,.9800572E-5,.8E-7,0
STARLINK-31364,2024-068J,2026-02-07T11:20:55.968000,15.27604304,.00028432,43.0070,201.5180,268.9723,91.0803,0,U,59463,999,10394,.3510275E-4,.704E-5,0
STARLINK-31597,2024-068K,2026-02-07T11:44:19.228416,15.27580876,.00014645,43.0010,205.0940,277.1095,82.9590,0,U,59464,999,10385,.31356454E-4,.601E-5,0
STARLINK-31621,2024-068L,2026-02-07T11:53:36.661344,15.27555636,.00009125,42.9990,205.1585,227.2255,132.8520,0,U,59465,999,10390,-.88852904E-4,-.2704E-4,0
STARLINK-31462,2024-068M,2026-02-07T11:33:13.480992,15.27573796,.00009313,42.9964,205.0196,240.0640,120.0119,0,U,59466,999,10390,.2061157E-4,.305E-5,0
STARLINK-31592,2024-068N,2026-02-07T12:10:13.503936,15.27586655,.00010841,43.0022,205.2373,262.6404,97.4325,0,U,59467,999,10390,.6263128E-4,.1462E-4,0
STARLINK-31267,2024-068P,2026-02-07T11:54:04.620384,15.27575337,.00005992,43.0014,200.8198,227.6557,132.4244,0,U,59468,999,10395,.15421023E-4,.163E-5,0
STARLINK-31381,2024-068Q,2026-02-07T18:09:03.321216,15.27583814,.00018759,42.9996,200.2149,315.1280,44.9420,0,U,59469,999,10398,.98844E-6,-.235E-5,0
STARLINK-31546,2024-068R,2026-02-05T20:10:45.113952,15.27582520,.00012352,42.9982,210.7662,253.7416,106.3300,0,U,59470,999,10369,.70774506E-4,.1686E-4,0
STARLINK-31575,2024-068S,2026-02-06T21:28:19.627104,15.27601988,.0000881,42.9996,204.9172,275.1257,84.9494,0,U,59471,999,10385,.114E-3,.2878E-4,0
STARLINK-31610,2024-068U,2026-02-07T11:22:08.039424,15.27566585,.0001469,43.0016,204.9785,281.1214,78.9472,0,U,59473,999,10390,.48298052E-4,.1067E-4,0
STARLINK-31581,2024-068V,2026-02-07T11:21:40.141728,15.27578920,.0001138,42.9980,198.0420,266.0145,94.0576,0,U,59474,999,10398,.91475853E-4,.2256E-4,0
STARLINK-31566,2024-068W,2026-02-07T11:27:40.588704,15.27579106,.00014474,43.0011,205.0047,272.0171,88.0515,0,U,59475,999,10390,-.12764751E-4,-.613E-5,0
STARLINK-31515,2024-068X,2026-02-07T11:38:47.458464,15.27567705,.00012761,42.9995,205.0625,283.5637,76.5072,0,U,59476,999,10390,-.29352306E-4,-.1069E-4,0
STARLINK-31531,2024-068Y,2026-02-07T09:11:31.637184,15.27456717,.0001341,42.9978,150.5173,313.2822,46.7918,0,U,59477,999,10451,.75792484E-3,.20574E-3,0
DUMMY SAT 3,2024-069A,2026-02-07T14:57:41.061888,0.98604828,.00511543,1.7867,82.9722,131.5303,229.1245,0,U,59479,999,653,0,.31E-6,0
WSF-M,2024-070A,2026-02-07T22:06:45.906624,14.20711007,.00044281,98.7200,48.6038,349.1327,10.9753,0,U,59481,999,9474,.58189611E-4,.82E-6,0
STARLINK-31753,2024-071A,2026-02-07T08:14:22.844544,15.27570423,.00009502,42.9916,151.1911,161.7852,198.3034,0,U,59484,999,10356,.2188481E-3,.5763E-4,0
STARLINK-31733,2024-071C,2026-02-06T15:50:17.393856,15.27556156,.00018061,42.9995,154.6721,305.0832,54.9850,0,U,59486,999,10346,.27681601E-4,.499E-5,0
STARLINK-31657,2024-071D,2026-02-07T14:12:30.097728,15.27582180,.0001015,42.9987,149.6278,287.1553,72.9188,0,U,59487,999,10360,.9301E-4,.2298E-4,0
STARLINK-31754,2024-071E,2026-02-07T09:15:53.311680,15.27589263,.00017735,43.0041,158.4498,277.3647,82.7003,0,U,59488,999,10348,.23946477E-4,.397E-5,0
STARLINK-31638,2024-071F,2026-02-07T07:54:01.282464,15.27579373,.000088,42.9956,151.0873,272.7381,87.3369,0,U,59489,999,10356,-.55402E-4,-.1786E-4,0
STARLINK-31670,2024-071G,2026-02-07T08:21:47.367360,15.27570282,.00016753,42.9970,162.5038,152.8370,207.2570,0,U,59490,999,10343,-.2659516E-5,-.335E-5,0
STARLINK-31712,2024-071H,2026-02-06T19:50:21.600960,15.27562623,.0000971,42.9959,165.4466,181.1772,178.9078,0,U,59491,999,10335,-.45365E-4,-.1509E-4,0
STARLINK-31684,2024-071J,2026-02-07T15:38:04.068672,15.27590817,.00013953,43.0002,156.9945,216.4623,143.6134,0,U,59492,999,10352,-.63264821E-4,-.2003E-4,0
STARLINK-31678,2024-071K,2026-02-07T07:58:24.760992,15.27570064,.0001336,42.9999,158.8962,237.0559,123.0164,0,U,59493,999,10229,-.95947E-4,-.29E-4,0
STARLINK-31744,2024-071L,2026-02-07T15:43:37.213248,15.27580239,.00015808,42.9968,157.0201,193.9720,166.1088,0,U,59494,999,10352,.10833016E-3,.272E-4,0
STARLINK-31719,2024-071M,2026-02-07T08:32:53.085408,15.27577752,.00012348,43.0028,151.3038,273.8454,86.2256,0,U,59495,999,10356,.741099E-6,-.242E-5,0
STARLINK-31728,2024-071N,2026-02-07T08:03:16.524288,15.27603822,.0001447,42.9980,151.1377,266.0994,93.9692,0,U,59496,999,10356,.17214E-2,.47446E-3,0
STARLINK-31720,2024-071P,2026-02-07T08:56:56.805216,15.27572125,.00014331,43.0009,151.4246,263.0063,97.0625,0,U,59497,999,10356,.53786482E-4,.1218E-4,0
STARLINK-31731,2024-071Q,2026-02-07T07:29:59.508384,15.27564749,.0001222,43.0006,150.9639,250.8150,109.2569,0,U,59498,999,10356,-.29983E-4,-.1087E-4,0
STARLINK-31742,2024-071R,2026-02-07T07:42:55.829664,15.27573561,.0000316,42.9963,151.0326,222.5043,137.5784,0,U,59499,999,10356,.32386E-4,.63E-5,0
STARLINK-31512,2024-071S,2026-02-07T05:39:02.531808,15.27574993,.000066,42.9981,111.5860,203.4197,156.6625,0,U,59500,999,10400,-.27497E-4,-.1018E-4,0
STARLINK-31458,2024-071T,2026-02-07T07:50:19.295808,15.27625236,.0001445,43.0003,151.0720,283.2745,76.7945,0,U,59501,999,10356,-.24991E-3,-.7142E-4,0
STARLINK-31357,2024-071U,2026-02-07T08:43:57.802944,15.27609647,.00021556,43.0025,151.3580,273.5970,86.4635,0,U,59502,999,10356,-.42240718E-3,-.11879E-3,0
STARLINK-31508,2024-071V,2026-02-07T15:06:09.288288,15.27577884,.00011898,42.9998,149.9034,199.6749,160.4057,0,U,59503,999,10360,.92813089E-4,.2293E-4,0
STARLINK-31535,2024-071W,2026-02-07T08:03:56.562048,15.27574737,.0001378,43.0011,158.9254,258.2578,101.8119,0,U,59504,999,10347,.15809E-4,.173E-5,0
STARLINK-31533,2024-071X,2026-02-07T09:00:39.287808,15.27567728,.00013021,43.0024,151.4413,275.8927,84.1776,0,U,59505,999,10356,-.56832852E-4,-.1825E-4,0
